[{"OBJECT_NAME":"SL-16 R/B","OBJECT_ID":"1993-059B","EPOCH":"2026-03-27T02:55:57.716256","MEAN_MOTION":14.17235297,"ECCENTRICITY":0.00175036,"INCLINATION":70.9923,"RA_OF_ASC_NODE":334.3676,"ARG_OF_PERICENTER":191.3199,"MEAN_ANOMALY":168.7534,"EPHEMERIS_TYPE":0,"CLASSIFICATION_TYPE":"U","NORAD_CAT_ID":22803,"ELEMENT_SET_NO":999,"REV_AT_EPOCH":68200,"BSTAR":-4.7782173e-5,"MEAN_MOTION_DOT":-1.45e-6,"MEAN_MOTION_DDOT":0},{"OBJECT_NAME":"ARIANE 40 R/B","OBJECT_ID":"1993-061H","EPOCH":"2026-03-27T03:44:51.563040","MEAN_MOTION":14.32870078,"ECCENTRICITY":0.00099193,"INCLINATION":98.4884,"RA_OF_ASC_NODE":154.6965,"ARG_OF_PERICENTER":227.6922,"MEAN_ANOMALY":132.3422,"EPHEMERIS_TYPE":0,"CLASSIFICATION_TYPE":"U","NORAD_CAT_ID":22830,"ELEMENT_SET_NO":999,"REV_AT_EPOCH":69660,"BSTAR":9.4503128e-5,"MEAN_MOTION_DOT":2.15e-6,"MEAN_MOTION_DDOT":0},{"OBJECT_NAME":"COSMOS 2278","OBJECT_ID":"1994-023A","EPOCH":"2026-03-27T06:41:12.185664","MEAN_MOTION":14.14376041,"ECCENTRICITY":0.00090915,"INCLINATION":71.0521,"RA_OF_ASC_NODE":138.3015,"ARG_OF_PERICENTER":345.6384,"MEAN_ANOMALY":14.4479,"EPHEMERIS_TYPE":0,"CLASSIFICATION_TYPE":"U","NORAD_CAT_ID":23087,"ELEMENT_SET_NO":999,"REV_AT_EPOCH":64729,"BSTAR":-0.00010504565,"MEAN_MOTION_DOT":-2.48e-6,"MEAN_MOTION_DDOT":0},{"OBJECT_NAME":"SL-16 R/B","OBJECT_ID":"1994-023B","EPOCH":"2026-03-27T05:54:58.012992","MEAN_MOTION":14.15014107,"ECCENTRICITY":0.00054543,"INCLINATION":71.0013,"RA_OF_ASC_NODE":34.0138,"ARG_OF_PERICENTER":269.1317,"MEAN_ANOMALY":90.9181,"EPHEMERIS_TYPE":0,"CLASSIFICATION_TYPE":"U","NORAD_CAT_ID":23088,"ELEMENT_SET_NO":999,"REV_AT_EPOCH":64857,"BSTAR":0.00020009509,"MEAN_MOTION_DOT":3.4e-6,"MEAN_MOTION_DDOT":0},{"OBJECT_NAME":"SL-16 R/B","OBJECT_ID":"1994-074B","EPOCH":"2026-03-27T02:37:20.682624","MEAN_MOTION":14.79427189,"ECCENTRICITY":0.00071638,"INCLINATION":97.7084,"RA_OF_ASC_NODE":116.2198,"ARG_OF_PERICENTER":153.3444,"MEAN_ANOMALY":273.9846,"EPHEMERIS_TYPE":0,"CLASSIFICATION_TYPE":"U","NORAD_CAT_ID":23343,"ELEMENT_SET_NO":999,"REV_AT_EPOCH":68982,"BSTAR":7.0862238e-5,"MEAN_MOTION_DOT":4.8e-6,"MEAN_MOTION_DDOT":0},{"OBJECT_NAME":"SL-16 R/B","OBJECT_ID":"1994-077B","EPOCH":"2026-03-27T01:55:05.750688","MEAN_MOTION":14.15569164,"ECCENTRICITY":0.00020511,"INCLINATION":70.9837,"RA_OF_ASC_NODE":315.9054,"ARG_OF_PERICENTER":198.0246,"MEAN_ANOMALY":162.0805,"EPHEMERIS_TYPE":0,"CLASSIFICATION_TYPE":"U","NORAD_CAT_ID":23405,"ELEMENT_SET_NO":999,"REV_AT_EPOCH":61869,"BSTAR":2.6959682e-5,"MEAN_MOTION_DOT":5.0e-8,"MEAN_MOTION_DDOT":0},{"OBJECT_NAME":"ARIANE 40+ R/B","OBJECT_ID":"1995-021B","EPOCH":"2026-03-27T04:33:48.853728","MEAN_MOTION":14.39784685,"ECCENTRICITY":0.00079665,"INCLINATION":98.4466,"RA_OF_ASC_NODE":157.433,"ARG_OF_PERICENTER":91.3745,"MEAN_ANOMALY":327.2072,"EPHEMERIS_TYPE":0,"CLASSIFICATION_TYPE":"U","NORAD_CAT_ID":23561,"ELEMENT_SET_NO":999,"REV_AT_EPOCH":62176,"BSTAR":0.00010400722,"MEAN_MOTION_DOT":2.83e-6,"MEAN_MOTION_DDOT":0},{"OBJECT_NAME":"SL-16 R/B","OBJECT_ID":"1995-058B","EPOCH":"2026-03-27T07:11:38.897664","MEAN_MOTION":14.15499735,"ECCENTRICITY":0.00101137,"INCLINATION":71.0207,"RA_OF_ASC_NODE":143.2859,"ARG_OF_PERICENTER":93.175,"MEAN_ANOMALY":267.0531,"EPHEMERIS_TYPE":0,"CLASSIFICATION_TYPE":"U","NORAD_CAT_ID":23705,"ELEMENT_SET_NO":999,"REV_AT_EPOCH":57034,"BSTAR":-9.9970545e-5,"MEAN_MOTION_DOT":-2.43e-6,"MEAN_MOTION_DDOT":0},{"OBJECT_NAME":"SL-16 R/B","OBJECT_ID":"1996-051B","EPOCH":"2026-03-27T07:18:46.708128","MEAN_MOTION":14.12420618,"ECCENTRICITY":0.00136289,"INCLINATION":70.7588,"RA_OF_ASC_NODE":137.9568,"ARG_OF_PERICENTER":119.7441,"MEAN_ANOMALY":240.5037,"EPHEMERIS_TYPE":0,"CLASSIFICATION_TYPE":"U","NORAD_CAT_ID":24298,"ELEMENT_SET_NO":999,"REV_AT_EPOCH":52413,"BSTAR":7.6692694e-5,"MEAN_MOTION_DOT":9.2e-7,"MEAN_MOTION_DDOT":0},{"OBJECT_NAME":"ORBVIEW 2 (SEASTAR)","OBJECT_ID":"1997-037A","EPOCH":"2026-03-27T04:36:14.748768","MEAN_MOTION":14.35506824,"ECCENTRICITY":0.00024879,"INCLINATION":98.8599,"RA_OF_ASC_NODE":250.9702,"ARG_OF_PERICENTER":34.6049,"MEAN_ANOMALY":325.5298,"EPHEMERIS_TYPE":0,"CLASSIFICATION_TYPE":"U","NORAD_CAT_ID":24883,"ELEMENT_SET_NO":999,"REV_AT_EPOCH":51098,"BSTAR":0.00011964607,"MEAN_MOTION_DOT":2.97e-6,"MEAN_MOTION_DDOT":0},{"OBJECT_NAME":"SL-16 R/B","OBJECT_ID":"1998-043G","EPOCH":"2026-03-27T06:32:15.866304","MEAN_MOTION":14.26053738,"ECCENTRICITY":0.0009278,"INCLINATION":98.8284,"RA_OF_ASC_NODE":39.7637,"ARG_OF_PERICENTER":329.3204,"MEAN_ANOMALY":30.7432,"EPHEMERIS_TYPE":0,"CLASSIFICATION_TYPE":"U","NORAD_CAT_ID":25400,"ELEMENT_SET_NO":999,"REV_AT_EPOCH":44149,"BSTAR":4.8173e-5,"MEAN_MOTION_DOT":7.0e-7,"MEAN_MOTION_DDOT":0},{"OBJECT_NAME":"SL-16 R/B","OBJECT_ID":"1998-045B","EPOCH":"2026-03-27T07:14:55.801536","MEAN_MOTION":14.16194504,"ECCENTRICITY":0.00079037,"INCLINATION":71.0105,"RA_OF_ASC_NODE":144.5383,"ARG_OF_PERICENTER":340.5967,"MEAN_ANOMALY":19.4854,"EPHEMERIS_TYPE":0,"CLASSIFICATION_TYPE":"U","NORAD_CAT_ID":25407,"ELEMENT_SET_NO":999,"REV_AT_EPOCH":42959,"BSTAR":-0.000104759,"MEAN_MOTION_DOT":-2.55e-6,"MEAN_MOTION_DDOT":0},{"OBJECT_NAME":"ISS (ZARYA)","OBJECT_ID":"1998-067A","EPOCH":"2026-03-27T03:10:20.925696","MEAN_MOTION":15.48575012,"ECCENTRICITY":0.0006239,"INCLINATION":51.6343,"RA_OF_ASC_NODE":346.1324,"ARG_OF_PERICENTER":237.1062,"MEAN_ANOMALY":122.9326,"EPHEMERIS_TYPE":0,"CLASSIFICATION_TYPE":"U","NORAD_CAT_ID":25544,"ELEMENT_SET_NO":999,"REV_AT_EPOCH":55903,"BSTAR":0.00024583004,"MEAN_MOTION_DOT":0.00012923,"MEAN_MOTION_DDOT":0},{"OBJECT_NAME":"CZ-4B R/B","OBJECT_ID":"1999-025C","EPOCH":"2026-03-27T03:54:38.683008","MEAN_MOTION":14.18268695,"ECCENTRICITY":0.00360401,"INCLINATION":98.6591,"RA_OF_ASC_NODE":130.0279,"ARG_OF_PERICENTER":295.3328,"MEAN_ANOMALY":133.5427,"EPHEMERIS_TYPE":0,"CLASSIFICATION_TYPE":"U","NORAD_CAT_ID":25732,"ELEMENT_SET_NO":999,"REV_AT_EPOCH":39064,"BSTAR":4.764171e-5,"MEAN_MOTION_DOT":5.5e-7,"MEAN_MOTION_DDOT":0},{"OBJECT_NAME":"OKEAN-O","OBJECT_ID":"1999-039A","EPOCH":"2026-03-27T03:48:13.949856","MEAN_MOTION":14.80362711,"ECCENTRICITY":8.829e-5,"INCLINATION":97.9406,"RA_OF_ASC_NODE":145.8693,"ARG_OF_PERICENTER":89.0311,"MEAN_ANOMALY":271.1002,"EPHEMERIS_TYPE":0,"CLASSIFICATION_TYPE":"U","NORAD_CAT_ID":25860,"ELEMENT_SET_NO":999,"REV_AT_EPOCH":43697,"BSTAR":9.748787e-5,"MEAN_MOTION_DOT":6.92e-6,"MEAN_MOTION_DDOT":0},{"OBJECT_NAME":"SL-16 R/B","OBJECT_ID":"1999-039B","EPOCH":"2026-03-27T02:55:35.864832","MEAN_MOTION":14.81754602,"ECCENTRICITY":0.00144155,"INCLINATION":97.9929,"RA_OF_ASC_NODE":145.1894,"ARG_OF_PERICENTER":195.7764,"MEAN_ANOMALY":164.3002,"EPHEMERIS_TYPE":0,"CLASSIFICATION_TYPE":"U","NORAD_CAT_ID":25861,"ELEMENT_SET_NO":999,"REV_AT_EPOCH":43944,"BSTAR":7.8526221e-5,"MEAN_MOTION_DOT":5.66e-6,"MEAN_MOTION_DDOT":0},{"OBJECT_NAME":"DELTA 2 R/B","OBJECT_ID":"1999-041E","EPOCH":"2026-03-27T01:39:03.908736","MEAN_MOTION":14.11875892,"ECCENTRICITY":0.05026457,"INCLINATION":51.7606,"RA_OF_ASC_NODE":231.8559,"ARG_OF_PERICENTER":39.6875,"MEAN_ANOMALY":323.9733,"EPHEMERIS_TYPE":0,"CLASSIFICATION_TYPE":"U","NORAD_CAT_ID":25876,"ELEMENT_SET_NO":999,"REV_AT_EPOCH":36548,"BSTAR":0.00016793807,"MEAN_MOTION_DOT":7.98e-6,"MEAN_MOTION_DDOT":0}]
